{
  "type": "FeatureCollection",
  "features": [
    {
      "type": "Feature",
      "properties": {
        "norad_id": 33860,
        "name": "IRIDIUM 33 DEB",
        "group": "iridium-33-debris",
        "lat": 8.251833115484676,
        "lon": 31.90820831899737,
        "alt_km": 666.4016418424053,
        "timestamp": "2025-12-03T08:58:46.387156+00:00",
        "meta_object_name": "IRIDIUM 33 DEB",
        "meta_object_id": "1997-051AD",
        "meta_epoch": "2025-12-03T04:19:16.478976",
        "meta_mean_motion": 14.67156816,
        "meta_eccentricity": 0.0008621,
        "meta_inclination": 86.385,
        "meta_ra_of_asc_node": 31.4687,
        "meta_arg_of_pericenter": 29.2665,
        "meta_mean_anomaly": 34.6506,
        "meta_ephemeris_type": 0,
        "meta_classification_type": "U",
        "meta_norad_cat_id": 33860,
        "meta_element_set_no": 999,
        "meta_rev_at_epoch": 88582,
        "meta_bstar": 0.0017428,
        "meta_mean_motion_dot": 9.83e-05,
        "meta_mean_motion_ddot": 0,
        "tle_line1": "1 33860U 97051AD  25337.18005184  .00009830  00000+0  17428-2 0  9992",
        "tle_line2": "2 33860  86.3850  31.4687 0008621  29.2665  34.6506 14.67156816885828"
      },
      "geometry": {
        "type": "Point",
        "coordinates": [
          31.90820831899737,
          8.251833115484676
        ]
      }
    },
    {
      "type": "Feature",
      "properties": {
        "norad_id": 33862,
        "name": "IRIDIUM 33 DEB",
        "group": "iridium-33-debris",
        "lat": -26.984916906027546,
        "lon": 39.82742101278051,
        "alt_km": 692.4049132388418,
        "timestamp": "2025-12-03T08:58:46.387168+00:00",
        "meta_object_name": "IRIDIUM 33 DEB",
        "meta_object_id": "1997-051AF",
        "meta_epoch": "2025-12-03T04:17:47.182848",
        "meta_mean_motion": 14.69210658,
        "meta_eccentricity": 0.0054085,
        "meta_inclination": 86.4104,
        "meta_ra_of_asc_node": 41.7451,
        "meta_arg_of_pericenter": 101.0892,
        "meta_mean_anomaly": 281.076,
        "meta_ephemeris_type": 0,
        "meta_classification_type": "U",
        "meta_norad_cat_id": 33862,
        "meta_element_set_no": 999,
        "meta_rev_at_epoch": 88683,
        "meta_bstar": 0.0018598,
        "meta_mean_motion_dot": 0.00011231,
        "meta_mean_motion_ddot": 0,
        "tle_line1": "1 33862U 97051AF  25337.17901832  .00011231  00000+0  18598-2 0  9995",
        "tle_line2": "2 33862  86.4104  41.7451 0054085 101.0892 281.0760 14.69210658886831"
      },
      "geometry": {
        "type": "Point",
        "coordinates": [
          39.82742101278051,
          -26.984916906027546
        ]
      }
    },
    {
      "type": "Feature",
      "properties": {
        "norad_id": 33866,
        "name": "IRIDIUM 33 DEB",
        "group": "iridium-33-debris",
        "lat": 81.6003939741481,
        "lon": 122.99117760817316,
        "alt_km": 825.881965300091,
        "timestamp": "2025-12-03T08:58:46.387180+00:00",
        "meta_object_name": "IRIDIUM 33 DEB",
        "meta_object_id": "1997-051AK",
        "meta_epoch": "2025-12-03T02:25:59.277792",
        "meta_mean_motion": 14.25217541,
        "meta_eccentricity": 0.0113682,
        "meta_inclination": 86.2996,
        "meta_ra_of_asc_node": 97.1128,
        "meta_arg_of_pericenter": 192.1363,
        "meta_mean_anomaly": 292.9347,
        "meta_ephemeris_type": 0,
        "meta_classification_type": "U",
        "meta_norad_cat_id": 33866,
        "meta_element_set_no": 999,
        "meta_rev_at_epoch": 86673,
        "meta_bstar": 0.00093699,
        "meta_mean_motion_dot": 2.374e-05,
        "meta_mean_motion_ddot": 0,
        "tle_line1": "1 33866U 97051AK  25337.10138053  .00002374  00000+0  93699-3 0  9993",
        "tle_line2": "2 33866  86.2996  97.1128 0113682 192.1363 292.9347 14.25217541866730"
      },
      "geometry": {
        "type": "Point",
        "coordinates": [
          122.99117760817316,
          81.6003939741481
        ]
      }
    },
    {
      "type": "Feature",
      "properties": {
        "norad_id": 33867,
        "name": "IRIDIUM 33 DEB",
        "group": "iridium-33-debris",
        "lat": -74.27902123377604,
        "lon": -172.0186260755382,
        "alt_km": 420.4998857640012,
        "timestamp": "2025-12-03T08:58:46.387192+00:00",
        "meta_object_name": "IRIDIUM 33 DEB",
        "meta_object_id": "1997-051AL",
        "meta_epoch": "2025-12-03T01:42:14.527872",
        "meta_mean_motion": 15.53496276,
        "meta_eccentricity": 0.0012049,
        "meta_inclination": 86.3625,
        "meta_ra_of_asc_node": 355.0733,
        "meta_arg_of_pericenter": 100.6254,
        "meta_mean_anomaly": 259.6365,
        "meta_ephemeris_type": 0,
        "meta_classification_type": "U",
        "meta_norad_cat_id": 33867,
        "meta_element_set_no": 999,
        "meta_rev_at_epoch": 89360,
        "meta_bstar": 0.0074943,
        "meta_mean_motion_dot": 0.00506591,
        "meta_mean_motion_ddot": 0,
        "tle_line1": "1 33867U 97051AL  25337.07100148  .00506591  00000+0  74943-2 0  9994",
        "tle_line2": "2 33867  86.3625 355.0733 0012049 100.6254 259.6365 15.53496276893609"
      },
      "geometry": {
        "type": "Point",
        "coordinates": [
          -172.0186260755382,
          -74.27902123377604
        ]
      }
    },
    {
      "type": "Feature",
      "properties": {
        "norad_id": 33870,
        "name": "IRIDIUM 33 DEB",
        "group": "iridium-33-debris",
        "lat": -30.29011766744964,
        "lon": -115.60352675428726,
        "alt_km": 731.0051963116912,
        "timestamp": "2025-12-03T08:58:46.387202+00:00",
        "meta_object_name": "IRIDIUM 33 DEB",
        "meta_object_id": "1997-051AP",
        "meta_epoch": "2025-12-03T04:49:08.389056",
        "meta_mean_motion": 14.45760529,
        "meta_eccentricity": 0.0020475,
        "meta_inclination": 86.3757,
        "meta_ra_of_asc_node": 62.349,
        "meta_arg_of_pericenter": 209.9044,
        "meta_mean_anomaly": 178.6407,
        "meta_ephemeris_type": 0,
        "meta_classification_type": "U",
        "meta_norad_cat_id": 33870,
        "meta_element_set_no": 999,
        "meta_rev_at_epoch": 87999,
        "meta_bstar": 0.0011974,
        "meta_mean_motion_dot": 4.273e-05,
        "meta_mean_motion_ddot": 0,
        "tle_line1": "1 33870U 97051AP  25337.20079154  .00004273  00000+0  11974-2 0  9990",
        "tle_line2": "2 33870  86.3757  62.3490 0020475 209.9044 178.6407 14.45760529879997"
      },
      "geometry": {
        "type": "Point",
        "coordinates": [
          -115.60352675428726,
          -30.29011766744964
        ]
      }
    },
    {
      "type": "Feature",
      "properties": {
        "norad_id": 33881,
        "name": "IRIDIUM 33 DEB",
        "group": "iridium-33-debris",
        "lat": 79.48171941600137,
        "lon": 130.70849165617554,
        "alt_km": 722.4598061642164,
        "timestamp": "2025-12-03T08:58:46.387214+00:00",
        "meta_object_name": "IRIDIUM 33 DEB",
        "meta_object_id": "1997-051BA",
        "meta_epoch": "2025-12-02T21:39:24.291936",
        "meta_mean_motion": 14.56279134,
        "meta_eccentricity": 0.0061128,
        "meta_inclination": 86.3865,
        "meta_ra_of_asc_node": 111.0151,
        "meta_arg_of_pericenter": 206.5604,
        "meta_mean_anomaly": 282.3625,
        "meta_ephemeris_type": 0,
        "meta_classification_type": "U",
        "meta_norad_cat_id": 33881,
        "meta_element_set_no": 999,
        "meta_rev_at_epoch": 87357,
        "meta_bstar": 0.0024856,
        "meta_mean_motion_dot": 0.00011311,
        "meta_mean_motion_ddot": 0,
        "tle_line1": "1 33881U 97051BA  25336.90236449  .00011311  00000+0  24856-2 0  9994",
        "tle_line2": "2 33881  86.3865 111.0151 0061128 206.5604 282.3625 14.56279134873572"
      },
      "geometry": {
        "type": "Point",
        "coordinates": [
          130.70849165617554,
          79.48171941600137
        ]
      }
    },
    {
      "type": "Feature",
      "properties": {
        "norad_id": 33884,
        "name": "IRIDIUM 33 DEB",
        "group": "iridium-33-debris",
        "lat": 45.304353600889065,
        "lon": 17.72435725245634,
        "alt_km": 629.4859531989878,
        "timestamp": "2025-12-03T08:58:46.387225+00:00",
        "meta_object_name": "IRIDIUM 33 DEB",
        "meta_object_id": "1997-051BD",
        "meta_epoch": "2025-12-03T02:24:03.792960",
        "meta_mean_motion": 14.77130142,
        "meta_eccentricity": 0.0010689,
        "meta_inclination": 86.3701,
        "meta_ra_of_asc_node": 14.1694,
        "meta_arg_of_pericenter": 359.2537,
        "meta_mean_anomaly": 29.5165,
        "meta_ephemeris_type": 0,
        "meta_classification_type": "U",
        "meta_norad_cat_id": 33884,
        "meta_element_set_no": 999,
        "meta_rev_at_epoch": 88705,
        "meta_bstar": 0.0017256,
        "meta_mean_motion_dot": 0.0001224,
        "meta_mean_motion_ddot": 0,
        "tle_line1": "1 33884U 97051BD  25337.10004390  .00012240  00000+0  17256-2 0  9996",
        "tle_line2": "2 33884  86.3701  14.1694 0010689 359.2537  29.5165 14.77130142887052"
      },
      "geometry": {
        "type": "Point",
        "coordinates": [
          17.72435725245634,
          45.304353600889065
        ]
      }
    }
  ]
}